[{"OBJECT_NAME":"STARLINK-34165","OBJECT_ID":"2025-101D","EPOCH":"2026-03-09T16:00:03.000096","MEAN_MOTION":15.27542503,"ECCENTRICITY":0.00017788,"INCLINATION":43.0037,"RA_OF_ASC_NODE":357.7874,"ARG_OF_PERICENTER":272.4604,"MEAN_ANOMALY":146.8496,"EPHEMERIS_TYPE":0,"CLASSIFICATION_TYPE":"U","NORAD_CAT_ID":63997,"ELEMENT_SET_NO":999,"REV_AT_EPOCH":577,"BSTAR":0.0015048177,"MEAN_MOTION_DOT":0.00041332,"MEAN_MOTION_DDOT":0},{"OBJECT_NAME":"COSMOS 1758","OBJECT_ID":"1986-046A","EPOCH":"2026-03-09T22:23:33.220896","MEAN_MOTION":15.25706639,"ECCENTRICITY":0.00131526,"INCLINATION":82.4607,"RA_OF_ASC_NODE":143.3203,"ARG_OF_PERICENTER":337.3781,"MEAN_ANOMALY":22.6875,"EPHEMERIS_TYPE":0,"CLASSIFICATION_TYPE":"U","NORAD_CAT_ID":16791,"ELEMENT_SET_NO":999,"REV_AT_EPOCH":16610,"BSTAR":0.00027304427,"MEAN_MOTION_DOT":7.006e-5,"MEAN_MOTION_DDOT":0}]
